[
  {
    "OBJECT_ID": "1958-002B",
    "OBJECT_NAME": "VANGUARD 1",
    "NORAD_CAT_ID": "5",
    "OBJECT_TYPE": "PAYLOAD",
    "PERIOD": "132.751",
    "INCLINATION": "34.2503",
    "APOGEE": "3835.266",
    "PERIGEE": "648.985",
    "ECCENTRICITY": "0.1848135",
    "MEAN_MOTION": "10.84731161",
    "TLE_LINE1": "1 00005U 58002B   16238.29297367 -.00000068  00000-0 -10544-3 0  9998",
    "TLE_LINE2": "2 00005  34.2503 196.2255 1848135 208.5544 140.0257 10.84731161 54158"
  },
  {
    "OBJECT_ID": "1959-001A",
    "OBJECT_NAME": "VANGUARD 2",
    "NORAD_CAT_ID": "11",
    "OBJECT_TYPE": "PAYLOAD",
    "PERIOD": "121.487",
    "INCLINATION": "32.8726",
    "APOGEE": "2940.513",
    "PERIGEE": "554.134",
    "ECCENTRICITY": "0.1468458",
    "MEAN_MOTION": "11.8530722",
    "TLE_LINE1": "1 00011U 59001A   16238.79335120  .00000360  00000-0  18219-3 0  9990",
    "TLE_LINE2": "2 00011  32.8726 238.9970 1468458 317.1964  32.2976 11.85307220451511"
  },
  {
    "OBJECT_ID": "1959-001B",
    "OBJECT_NAME": "VANGUARD R/B",
    "NORAD_CAT_ID": "12",
    "OBJECT_TYPE": "ROCKET BODY",
    "PERIOD": "125.875",
    "INCLINATION": "32.9052",
    "APOGEE": "3327.846",
    "PERIGEE": "555.751",
    "ECCENTRICITY": "0.1665936",
    "MEAN_MOTION": "11.43991874",
    "TLE_LINE1": "1    12U 59001B   16237.92911644 +.00000142 +00000-0 +72396-4 0  9991",
    "TLE_LINE2": "2    12 032.9052 182.2275 1665936 315.9631 031.9447 11.43991874120443"
  },
  {
    "OBJECT_ID": "1958-002A",
    "OBJECT_NAME": "VANGUARD R/B",
    "NORAD_CAT_ID": "16",
    "OBJECT_TYPE": "ROCKET BODY",
    "PERIOD": "137.315",
    "INCLINATION": "34.2589",
    "APOGEE": "4225.018",
    "PERIGEE": "652.097",
    "ECCENTRICITY": "0.2026225",
    "MEAN_MOTION": "10.48682897",
    "TLE_LINE1": "1 00016U 58002A   16237.28245940 -.00000019  00000-0 -10439-4 0  9998",
    "TLE_LINE2": "2 00016  34.2589 217.1791 2026225 123.8101 257.2120 10.48682897312562"
  },
  {
    "OBJECT_ID": "1959-007A",
    "OBJECT_NAME": "VANGUARD 3",
    "NORAD_CAT_ID": "20",
    "OBJECT_TYPE": "PAYLOAD",
    "PERIOD": "124.649",
    "INCLINATION": "33.3422",
    "APOGEE": "3265.632",
    "PERIGEE": "509.755",
    "ECCENTRICITY": "0.166703",
    "MEAN_MOTION": "11.5524247",
    "TLE_LINE1": "1    20U 59007A   16237.92237487 +.00000417 +00000-0 +18030-3 0  9991",
    "TLE_LINE2": "2    20 033.3422 101.7078 1667030 081.6865 296.8508 11.55242470069488"
  },
  {
    "OBJECT_ID": "1959-009A",
    "OBJECT_NAME": "EXPLORER 7",
    "NORAD_CAT_ID": "22",
    "OBJECT_TYPE": "PAYLOAD",
    "PERIOD": "96.407",
    "INCLINATION": "50.2848",
    "APOGEE": "686.498",
    "PERIGEE": "486.558",
    "ECCENTRICITY": "0.0143539",
    "MEAN_MOTION": "14.93662643",
    "TLE_LINE1": "1 00022U 59009A   16238.27673795  .00000564  00000-0  66679-4 0  9996",
    "TLE_LINE2": "2 00022  50.2848 148.0594 0143539 344.7859  14.8794 14.93662643 17116"
  },
  {
    "OBJECT_ID": "1960-002B",
    "OBJECT_NAME": "TIROS 1",
    "NORAD_CAT_ID": "29",
    "OBJECT_TYPE": "PAYLOAD",
    "PERIOD": "97.687",
    "INCLINATION": "48.3803",
    "APOGEE": "664.827",
    "PERIGEE": "631.281",
    "ECCENTRICITY": "0.0023872",
    "MEAN_MOTION": "14.74086422",
    "TLE_LINE1": "1 00029U 60002B   16237.92544337 -.00000092  00000-0  17391-4 0  9992",
    "TLE_LINE2": "2 00029  48.3803  39.2217 0023872  35.2916 324.9571 14.74086422 13194"
  },
  {
    "OBJECT_ID": "1960-007A",
    "OBJECT_NAME": "TRANSIT 2A",
    "NORAD_CAT_ID": "45",
    "OBJECT_TYPE": "PAYLOAD",
    "PERIOD": "100.453",
    "INCLINATION": "66.6938",
    "APOGEE": "968.281",
    "PERIGEE": "591.816",
    "ECCENTRICITY": "0.0262961",
    "MEAN_MOTION": "14.3350257",
    "TLE_LINE1": "1 00045U 60007A   16238.09046895 -.00000072  00000-0  92784-5 0  9998",
    "TLE_LINE2": "2 00045  66.6938  89.6921 0262961 249.5844 107.6840 14.33502570923129"
  },
  {
    "OBJECT_ID": "1960-007B",
    "OBJECT_NAME": "SOLRAD 1 (GREB)",
    "NORAD_CAT_ID": "46",
    "OBJECT_TYPE": "PAYLOAD",
    "PERIOD": "99.384",
    "INCLINATION": "66.6896",
    "APOGEE": "873.649",
    "PERIGEE": "584.739",
    "ECCENTRICITY": "0.0203248",
    "MEAN_MOTION": "14.48915697",
    "TLE_LINE1": "1    46U 60007B   16237.92398671 +.00000066 +00000-0 +36710-4 0  9990",
    "TLE_LINE2": "2    46 066.6896 208.2619 0203248 089.0420 273.3967 14.48915697937339"
  },
  {
    "OBJECT_ID": "1960-007C",
    "OBJECT_NAME": "THOR ABLESTAR R/B",
    "NORAD_CAT_ID": "47",
    "OBJECT_TYPE": "ROCKET BODY",
    "PERIOD": "99.871",
    "INCLINATION": "66.6648",
    "APOGEE": "920.161",
    "PERIGEE": "584.629",
    "ECCENTRICITY": "0.0235278",
    "MEAN_MOTION": "14.41849768",
    "TLE_LINE1": "1 00047U 60007C   16238.18658888 -.00000008  00000-0  23334-4 0  9994",
    "TLE_LINE2": "2 00047  66.6648 277.1140 0235278 242.5381 115.1626 14.41849768934384"
  },
  {
    "OBJECT_ID": "1960-009B",
    "OBJECT_NAME": "DELTA 1 R/B",
    "NORAD_CAT_ID": "50",
    "OBJECT_TYPE": "ROCKET BODY",
    "PERIOD": "118.023",
    "INCLINATION": "47.2307",
    "APOGEE": "1682.416",
    "PERIGEE": "1501.828",
    "ECCENTRICITY": "0.0113289",
    "MEAN_MOTION": "12.20096664",
    "TLE_LINE1": "1 00050U 60009B   16238.09277152 -.00000075  00000-0  10298-3 0  9999",
    "TLE_LINE2": "2 00050  47.2307 122.6477 0113289 135.9680 225.0199 12.20096664500677"
  },
  {
    "OBJECT_ID": "1960-009C",
    "OBJECT_NAME": "ECHO 1 DEB (METAL OBJ)",
    "NORAD_CAT_ID": "51",
    "OBJECT_TYPE": "DEBRIS",
    "PERIOD": "118.201",
    "INCLINATION": "47.2146",
    "APOGEE": "1682.980",
    "PERIGEE": "1517.267",
    "ECCENTRICITY": "0.0103853",
    "MEAN_MOTION": "12.18261661",
    "TLE_LINE1": "1 00051U 60009C   16238.21192111 -.00000125  00000-0 -38872-3 0  9990",
    "TLE_LINE2": "2 00051  47.2146 334.6405 0103853 342.7706  16.9570 12.18261661494353"
  },
  {
    "OBJECT_ID": "1960-009E",
    "OBJECT_NAME": "ECHO 1 DEB (METAL OBJ)",
    "NORAD_CAT_ID": "53",
    "OBJECT_TYPE": "DEBRIS",
    "PERIOD": "118.305",
    "INCLINATION": "47.2749",
    "APOGEE": "1684.936",
    "PERIGEE": "1524.661",
    "ECCENTRICITY": "0.0100386",
    "MEAN_MOTION": "12.17191685",
    "TLE_LINE1": "1    53U 60009E   16237.85389502 -.00000084 +00000-0 +00000-0 0  9995",
    "TLE_LINE2": "2    53 047.2749 233.3128 0100386 286.1233 072.8524 12.17191685498941"
  },
  {
    "OBJECT_ID": "1960-013A",
    "OBJECT_NAME": "COURIER 1B",
    "NORAD_CAT_ID": "58",
    "OBJECT_TYPE": "PAYLOAD",
    "PERIOD": "106.959",
    "INCLINATION": "28.328",
    "APOGEE": "1209.103",
    "PERIGEE": "962.674",
    "ECCENTRICITY": "0.0165078",
    "MEAN_MOTION": "13.46304191",
    "TLE_LINE1": "1 00058U 60013A   16237.66228747  .00000092  00000-0  14735-4 0  9999",
    "TLE_LINE2": "2 00058  28.3280 320.5375 0165078  58.3366 303.3167 13.46304191751313"
  },
  {
    "OBJECT_ID": "1960-013B",
    "OBJECT_NAME": "THOR ABLESTAR R/B",
    "NORAD_CAT_ID": "59",
    "OBJECT_TYPE": "ROCKET BODY",
    "PERIOD": "106.434",
    "INCLINATION": "28.2471",
    "APOGEE": "1202.331",
    "PERIGEE": "920.579",
    "ECCENTRICITY": "0.018936",
    "MEAN_MOTION": "13.52942129",
    "TLE_LINE1": "1    59U 60013B   16237.92930110 +.00000103 +00000-0 +21154-4 0  9999",
    "TLE_LINE2": "2    59 028.2471 171.1088 0189360 118.6443 243.3283 13.52942129757877"
  },
  {
    "OBJECT_ID": "1961-004B",
    "OBJECT_NAME": "SCOUT X-1 R/B",
    "NORAD_CAT_ID": "82",
    "OBJECT_TYPE": "ROCKET BODY",
    "PERIOD": "117.476",
    "INCLINATION": "38.8575",
    "APOGEE": "2494.683",
    "PERIGEE": "640.311",
    "ECCENTRICITY": "0.1166913",
    "MEAN_MOTION": "12.25772969",
    "TLE_LINE1": "1    82U 61004B   16237.65698602 +.00000047 +00000-0 +68326-4 0  9992",
    "TLE_LINE2": "2    82 038.8575 314.2813 1166913 203.0890 151.2952 12.25772969636874"
  },
  {
    "OBJECT_ID": "1961-004C",
    "OBJECT_NAME": "SCOUT X-1 DEB",
    "NORAD_CAT_ID": "85",
    "OBJECT_TYPE": "DEBRIS",
    "PERIOD": "101.709",
    "INCLINATION": "38.7754",
    "APOGEE": "1126.899",
    "PERIGEE": "552.298",
    "ECCENTRICITY": "0.0398048",
    "MEAN_MOTION": "14.1579838",
    "TLE_LINE1": "1 00085U 61004C   16237.45132548  .00000309  00000-0  91248-4 0  9995",
    "TLE_LINE2": "2 00085  38.7754 265.2274 0398048 247.3948 108.4228 14.15798380733189"
  },
  {
    "OBJECT_ID": "1961-013A",
    "OBJECT_NAME": "EXPLORER 11",
    "NORAD_CAT_ID": "107",
    "OBJECT_TYPE": "PAYLOAD",
    "PERIOD": "102.276",
    "INCLINATION": "28.7894",
    "APOGEE": "1265.404",
    "PERIGEE": "467.431",
    "ECCENTRICITY": "0.055074",
    "MEAN_MOTION": "14.07944001",
    "TLE_LINE1": "1 00107U 61013A   16238.78049618  .00000479  00000-0  44990-4 0  9992",
    "TLE_LINE2": "2 00107  28.7894 116.4022 0550740 336.6533  20.9898 14.07944001769394"
  },
  {
    "OBJECT_ID": "1960-002D",
    "OBJECT_NAME": "THOR ABLE DEB (YO)",
    "NORAD_CAT_ID": "115",
    "OBJECT_TYPE": "DEBRIS",
    "PERIOD": "97.110",
    "INCLINATION": "48.1669",
    "APOGEE": "644.925",
    "PERIGEE": "595.747",
    "ECCENTRICITY": "0.0035135",
    "MEAN_MOTION": "14.82852461",
    "TLE_LINE1": "1   115U 60002D   16237.87340885 +.00000012 +00000-0 +28760-4 0  9997",
    "TLE_LINE2": "2   115 048.1669 127.4449 0035135 234.8276 124.9343 14.82852461985079"
  },
  {
    "OBJECT_ID": "1961-015A",
    "OBJECT_NAME": "TRANSIT 4A",
    "NORAD_CAT_ID": "116",
    "OBJECT_TYPE": "PAYLOAD",
    "PERIOD": "103.471",
    "INCLINATION": "66.8114",
    "APOGEE": "983.086",
    "PERIGEE": "862.333",
    "ECCENTRICITY": "0.0082698",
    "MEAN_MOTION": "13.91691697",
    "TLE_LINE1": "1 00116U 61015A   16237.91482236 -.00000017  00000-0  46301-4 0  9992",
    "TLE_LINE2": "2 00116  66.8114  12.2237 0082698 265.0530  94.1105 13.91691697798520"
  }
]
